{"type": "FeatureCollection", "features": [ {"type": "Feature", "properties": {"norad_id": 33867, "name": "IRIDIUM 33 DEB", "group": "iridium-33-debris", "lat": -25.26040874513219, "lon": 172.92242037756196, "alt_km": 387.20394421256515, "timestamp": "2025-12-10T14:53:37.473131+00:00", "meta": {"OBJECT_NAME": "IRIDIUM 33 DEB", "OBJECT_ID": "1997-051AL", "EPOCH": "2025-12-10T01:43:40.843200", "MEAN_MOTION": 15.62710483, "ECCENTRICITY": 0.00130842, "INCLINATION": 86.3647, "RA_OF_ASC_NODE": 351.486, "ARG_OF_PERICENTER": 90.2976, "MEAN_ANOMALY": 269.979, "EPHEMERIS_TYPE": 0, "CLASSIFICATION_TYPE": "U", "NORAD_CAT_ID": 33867, "ELEMENT_SET_NO": 999, "REV_AT_EPOCH": 89469, "BSTAR": 0.0085299038, "MEAN_MOTION_DOT": 0.0083324, "MEAN_MOTION_DDOT": 0}, "tle": {"line1": "1 33867U 97051AL  25344.07200050  .00833240  00000+0  85299-2 0  9995", "line2": "2 33867  86.3647 351.4860 0013084  90.2976 269.9790 15.62710483894694"}}, "geometry": {"type": "Point", "coordinates": [172.92242037756196, -25.26040874513219]}}, {"type": "Feature", "properties": {"norad_id": 33870, "name": "IRIDIUM 33 DEB", "group": "iridium-33-debris", "lat": 76.7661491772929, "lon": -136.47214699463495, "alt_km": 730.0798999591098, "timestamp": "2025-12-10T14:53:37.473141+00:00", "meta": {"OBJECT_NAME": "IRIDIUM 33 DEB", "OBJECT_ID": "1997-051AP", "EPOCH": "2025-12-10T06:24:18.912384", "MEAN_MOTION": 14.45830234, "ECCENTRICITY": 0.00212051, "INCLINATION": 86.3744, "RA_OF_ASC_NODE": 59.3205, "ARG_OF_PERICENTER": 186.1349, "MEAN_ANOMALY": 237.0541, "EPHEMERIS_TYPE": 0, "CLASSIFICATION_TYPE": "U", "NORAD_CAT_ID": 33870, "ELEMENT_SET_NO": 999, "REV_AT_EPOCH": 88101, "BSTAR": 0.0012180953, "MEAN_MOTION_DOT": 4.353e-05, "MEAN_MOTION_DDOT": 0}, "tle": {"line1": "1 33870U 97051AP  25344.26688556  .00004353  00000+0  12181-2 0  9996", "line2": "2 33870  86.3744  59.3205 0021205 186.1349 237.0541 14.45830234881015"}}, "geometry": {"type": "Point", "coordinates": [-136.47214699463495, 76.7661491772929]}}, {"type": "Feature", "properties": {"norad_id": 33881, "name": "IRIDIUM 33 DEB", "group": "iridium-33-debris", "lat": -70.06013713884363, "lon": -62.30630655792565, "alt_km": 696.0193613172405, "timestamp": "2025-12-10T14:53:37.473151+00:00", "meta": {"OBJECT_NAME": "IRIDIUM 33 DEB", "OBJECT_ID": "1997-051BA", "EPOCH": "2025-12-09T10:01:33.652704", "MEAN_MOTION": 14.56473135, "ECCENTRICITY": 0.00614296, "INCLINATION": 86.3869, "RA_OF_ASC_NODE": 108.1859, "ARG_OF_PERICENTER": 185.4197, "MEAN_ANOMALY": 241.4979, "EPHEMERIS_TYPE": 0, "CLASSIFICATION_TYPE": "U", "NORAD_CAT_ID": 33881, "ELEMENT_SET_NO": 999, "REV_AT_EPOCH": 87452, "BSTAR": 0.0028428363, "MEAN_MOTION_DOT": 0.00012995, "MEAN_MOTION_DDOT": 0}, "tle": {"line1": "1 33881U 97051BA  25343.41775061  .00012995  00000+0  28428-2 0  9994", "line2": "2 33881  86.3869 108.1859 0061429 185.4197 241.4979 14.56473135874525"}}, "geometry": {"type": "Point", "coordinates": [-62.30630655792565, -70.06013713884363]}}, {"type": "Feature", "properties": {"norad_id": 33884, "name": "IRIDIUM 33 DEB", "group": "iridium-33-debris", "lat": 37.42850391921342, "lon": 13.560013986592296, "alt_km": 632.1888782093265, "timestamp": "2025-12-10T14:53:37.473161+00:00", "meta": {"OBJECT_NAME": "IRIDIUM 33 DEB", "OBJECT_ID": "1997-051BD", "EPOCH": "2025-12-10T01:50:22.540992", "MEAN_MOTION": 14.77342493, "ECCENTRICITY": 0.00099622, "INCLINATION": 86.3694, "RA_OF_ASC_NODE": 11.0201, "ARG_OF_PERICENTER": 333.9482, "MEAN_ANOMALY": 52.6252, "EPHEMERIS_TYPE": 0, "CLASSIFICATION_TYPE": "U", "NORAD_CAT_ID": 33884, "ELEMENT_SET_NO": 999, "REV_AT_EPOCH": 88808, "BSTAR": 0.0018952534, "MEAN_MOTION_DOT": 0.00013509, "MEAN_MOTION_DDOT": 0}, "tle": {"line1": "1 33884U 97051BD  25344.07664978  .00013509  00000+0  18953-2 0  9998", "line2": "2 33884  86.3694  11.0201 0009962 333.9482  52.6252 14.77342493888085"}}, "geometry": {"type": "Point", "coordinates": [13.560013986592296, 37.42850391921342]}}, {"type": "Feature", "properties": {"norad_id": 33886, "name": "IRIDIUM 33 DEB", "group": "iridium-33-debris", "lat": -80.99676078409934, "lon": 44.591213839548395, "alt_km": 771.3518352030269, "timestamp": "2025-12-10T14:53:37.473170+00:00", "meta": {"OBJECT_NAME": "IRIDIUM 33 DEB", "OBJECT_ID": "1997-051BF", "EPOCH": "2025-12-10T07:12:12.704256", "MEAN_MOTION": 14.36047612, "ECCENTRICITY": 0.00121709, "INCLINATION": 86.383, "RA_OF_ASC_NODE": 68.2555, "ARG_OF_PERICENTER": 251.2153, "MEAN_ANOMALY": 171.5085, "EPHEMERIS_TYPE": 0, "CLASSIFICATION_TYPE": "U", "NORAD_CAT_ID": 33886, "ELEMENT_SET_NO": 999, "REV_AT_EPOCH": 88017, "BSTAR": 0.00033054969, "MEAN_MOTION_DOT": 9.81e-06, "MEAN_MOTION_DDOT": 0}, "tle": {"line1": "1 33886U 97051BF  25344.30014704  .00000981  00000+0  33055-3 0  9993", "line2": "2 33886  86.3830  68.2555 0012170 251.2153 171.5085 14.36047612880174"}}, "geometry": {"type": "Point", "coordinates": [44.591213839548395, -80.99676078409934]}}, {"type": "Feature", "properties": {"norad_id": 33887, "name": "IRIDIUM 33 DEB", "group": "iridium-33-debris", "lat": -25.57534678862818, "lon": -173.92182889177394, "alt_km": 770.8123061420947, "timestamp": "2025-12-10T14:53:37.473180+00:00", "meta": {"OBJECT_NAME": "IRIDIUM 33 DEB", "OBJECT_ID": "1997-051BG", "EPOCH": "2025-12-10T07:19:28.632000", "MEAN_MOTION": 14.37217686, "ECCENTRICITY": 0.00042509, "INCLINATION": 86.3045, "RA_OF_ASC_NODE": 4.4415, "ARG_OF_PERICENTER": 237.58, "MEAN_ANOMALY": 137.2262, "EPHEMERIS_TYPE": 0, "CLASSIFICATION_TYPE": "U", "NORAD_CAT_ID": 33887, "ELEMENT_SET_NO": 999, "REV_AT_EPOCH": 88130, "BSTAR": 0.00022389718, "MEAN_MOTION_DOT": 6.86e-06, "MEAN_MOTION_DDOT": 0}, "tle": {"line1": "1 33887U 97051BG  25344.30519250  .00000686  00000+0  22390-3 0  9992", "line2": "2 33887  86.3045   4.4415 0004250 237.5800 137.2262 14.37217686881309"}}, "geometry": {"type": "Point", "coordinates": [-173.92182889177394, -25.57534678862818]}}, {"type": "Feature", "properties": {"norad_id": 33953, "name": "IRIDIUM 33 DEB", "group": "iridium-33-debris", "lat": -76.27559651541374, "lon": 39.69248787897954, "alt_km": 728.8681276252437, "timestamp": "2025-12-10T14:53:37.473190+00:00", "meta": {"OBJECT_NAME": "IRIDIUM 33 DEB", "OBJECT_ID": "1997-051BN", "EPOCH": "2025-12-09T23:18:17.054208", "MEAN_MOTION": 14.5527898, "ECCENTRICITY": 0.00184582, "INCLINATION": 86.384, "RA_OF_ASC_NODE": 54.9808, "ARG_OF_PERICENTER": 111.2598, "MEAN_ANOMALY": 11.2257, "EPHEMERIS_TYPE": 0, "CLASSIFICATION_TYPE": "U", "NORAD_CAT_ID": 33953, "ELEMENT_SET_NO": 999, "REV_AT_EPOCH": 88263, "BSTAR": 0.0016887129, "MEAN_MOTION_DOT": 7.353e-05, "MEAN_MOTION_DDOT": 0}, "tle": {"line1": "1 33953U 97051BN  25343.97103072  .00007353  00000+0  16887-2 0  9990", "line2": "2 33953  86.3840  54.9808 0018458 111.2598  11.2257 14.55278980882635"}}, "geometry": {"type": "Point", "coordinates": [39.69248787897954, -76.27559651541374]}}, {"type": "Feature", "properties": {"norad_id": 33960, "name": "IRIDIUM 33 DEB", "group": "iridium-33-debris", "lat": -40.54397364610056, "lon": 113.72661684374674, "alt_km": 624.9928136896451, "timestamp": "2025-12-10T14:53:37.473200+00:00", "meta": {"OBJECT_NAME": "IRIDIUM 33 DEB", "OBJECT_ID": "1997-051BV", "EPOCH": "2025-12-10T08:09:24.835392", "MEAN_MOTION": 14.84978934, "ECCENTRICITY": 0.00074716, "INCLINATION": 86.2534, "RA_OF_ASC_NODE": 290.6456, "ARG_OF_PERICENTER": 66.0574, "MEAN_ANOMALY": 94.8264, "EPHEMERIS_TYPE": 0, "CLASSIFICATION_TYPE": "U", "NORAD_CAT_ID": 33960, "ELEMENT_SET_NO": 999, "REV_AT_EPOCH": 88831, "BSTAR": 0.0048552485, "MEAN_MOTION_DOT": 0.00041622, "MEAN_MOTION_DDOT": 0}, "tle": {"line1": "1 33960U 97051BV  25344.33987078  .00041622  00000+0  48552-2 0  9996", "line2": "2 33960  86.2534 290.6456 0007471  66.0574  94.8264 14.84978934888318"}}, "geometry": {"type": "Point", "coordinates": [113.72661684374674, -40.54397364610056]}}, {"type": "Feature", "properties": {"norad_id": 33966, "name": "IRIDIUM 33 DEB", "group": "iridium-33-debris", "lat": 85.4305933985951, "lon": 174.8054422980679, "alt_km": 720.6535255187046, "timestamp": "2025-12-10T14:53:37.473209+00:00", "meta": {"OBJECT_NAME": "IRIDIUM 33 DEB", "OBJECT_ID": "1997-051CB", "EPOCH": "2025-12-10T04:46:33.396960", "MEAN_MOTION": 14.49577147, "ECCENTRICITY": 0.00071131, "INCLINATION": 86.3923, "RA_OF_ASC_NODE": 47.1175, "ARG_OF_PERICENTER": 196.7181, "MEAN_ANOMALY": 217.5881, "EPHEMERIS_TYPE": 0, "CLASSIFICATION_TYPE": "U", "NORAD_CAT_ID": 33966, "ELEMENT_SET_NO": 999, "REV_AT_EPOCH": 88405, "BSTAR": 0.0007778193, "MEAN_MOTION_DOT": 3.004e-05, "MEAN_MOTION_DDOT": 0}, "tle": {"line1": "1 33966U 97051CB  25344.19899765  .00003004  00000+0  77782-3 0  9991", "line2": "2 33966  86.3923  47.1175 0007113 196.7181 217.5881 14.49577147884056"}}, "geometry": {"type": "Point", "coordinates": [174.8054422980679, 85.4305933985951]}}, {"type": "Feature", "properties": {"norad_id": 34071, "name": "IRIDIUM 33 DEB", "group": "iridium-33-debris", "lat": 19.518170313956617, "lon": -162.54866377713822, "alt_km": 722.9337916088743, "timestamp": "2025-12-10T14:53:37.473219+00:00", "meta": {"OBJECT_NAME": "IRIDIUM 33 DEB", "OBJECT_ID": "1997-051CE", "EPOCH": "2025-12-10T04:12:57.801600", "MEAN_MOTION": 14.49446017, "ECCENTRICITY": 0.00098473, "INCLINATION": 86.3457, "RA_OF_ASC_NODE": 18.9427, "ARG_OF_PERICENTER": 114.4386, "MEAN_ANOMALY": 245.7847, "EPHEMERIS_TYPE": 0, "CLASSIFICATION_TYPE": "U", "NORAD_CAT_ID": 34071, "ELEMENT_SET_NO": 999, "REV_AT_EPOCH": 88297, "BSTAR": 0.00080362709, "MEAN_MOTION_DOT": 3.096e-05, "MEAN_MOTION_DDOT": 0}, "tle": {"line1": "1 34071U 97051CE  25344.17566900  .00003096  00000+0  80363-3 0  9999", "line2": "2 34071  86.3457  18.9427 0009847 114.4386 245.7847 14.49446017882977"}}, "geometry": {"type": "Point", "coordinates": [-162.54866377713822, 19.518170313956617]}}]}